[{"OBJECT_NAME":"MATS","OBJECT_ID":"2022-147A","EPOCH":"2026-03-09T23:39:00.807264","MEAN_MOTION":15.0466868,"ECCENTRICITY":0.00129708,"INCLINATION":97.6844,"RA_OF_ASC_NODE":71.061,"ARG_OF_PERICENTER":166.9988,"MEAN_ANOMALY":193.1575,"EPHEMERIS_TYPE":0,"CLASSIFICATION_TYPE":"U","NORAD_CAT_ID":54227,"ELEMENT_SET_NO":999,"REV_AT_EPOCH":18284,"BSTAR":0.00029670702,"MEAN_MOTION_DOT":4.118e-5,"MEAN_MOTION_DDOT":0},{"OBJECT_NAME":"STARLINK-35273","OBJECT_ID":"2025-218Q","EPOCH":"2026-03-09T12:44:58.460352","MEAN_MOTION":15.05645582,"ECCENTRICITY":0.00022559,"INCLINATION":97.6026,"RA_OF_ASC_NODE":292.7636,"ARG_OF_PERICENTER":78.5723,"MEAN_ANOMALY":281.5758,"EPHEMERIS_TYPE":0,"CLASSIFICATION_TYPE":"U","NORAD_CAT_ID":65805,"ELEMENT_SET_NO":999,"REV_AT_EPOCH":2494,"BSTAR":0.00038239935,"MEAN_MOTION_DOT":5.461e-5,"MEAN_MOTION_DDOT":0}]
